NORAD_CAT_ID,OBJECT_NAME,OBJECT_TYPE,EPOCH,MEAN_MOTION,ECCENTRICITY,INCLINATION,RA_OF_ASC_NODE,ARG_OF_PERICENTER,MEAN_ANOMALY,BSTAR,MEAN_MOTION_DOT,MEAN_MOTION_DDOT,TLE_LINE0,TLE_LINE1,TLE_LINE2,SEMIMAJOR_AXIS,PERIOD,APOGEE,PERIGEE,DECAYED
55310.0,STARLINK-5309,PAYLOAD,2024-02-01 12:10:14,14.98324022,0.0002938,70.0005,138.8828,267.9866,92.0957,-7.7798e-05,-1.021e-05,0.0,0 STARLINK-5309,1 55310U 23010AT  24032.50711507 -.00001021  00000-0 -77798-4 0  9995,2 55310  70.0005 138.8828 0002938 267.9866  92.0957 14.98324022 58530,6950.211,96.107,574.118,570.034,0.0
55310.0,STARLINK-5309,PAYLOAD,2024-02-02 12:12:16,14.983082,0.0002483,70.0021,136.3626,239.3593,120.7321,9.3219e-05,1.019e-05,0.0,0 STARLINK-5309,1 55310U 23010AT  24033.50853001  .00001019  00000-0  93219-4 0  9993,2 55310  70.0021 136.3626 0002483 239.3593 120.7321 14.98308200 58682,6950.26,96.108,573.851,570.4,0.0
55310.0,STARLINK-5309,PAYLOAD,2024-02-02 13:48:25,14.98304015,0.000277,70.0047,136.197,202.4502,157.6536,0.00012304,1.375e-05,0.0,0 STARLINK-5309,1 55310U 23010AT  24033.57529226  .00001375  00000-0  12304-3 0  9999,2 55310  70.0047 136.1970 0002770 202.4502 157.6536 14.98304015 59015,6950.273,96.109,574.063,570.213,0.0
55310.0,STARLINK-5309,PAYLOAD,2024-02-02 17:00:40,14.98314319,0.0002558,70.0011,135.8541,260.5019,99.5851,0.00018305,2.091e-05,0.0,0 STARLINK-5309,1 55310U 23010AT  24033.70880648  .00002091  00000-0  18305-3 0  9995,2 55310  70.0011 135.8541 0002558 260.5019  99.5851 14.98314319 58716,6950.241,96.108,573.884,570.329,0.0
55310.0,STARLINK-5309,PAYLOAD,2024-02-03 12:14:17,14.98328385,0.0003336,69.9995,133.8321,278.536,81.5421,0.00010338,1.141e-05,0.0,0 STARLINK-5309,1 55310U 23010AT  24034.50992265  .00001141  00000-0  10338-3 0  9996,2 55310  69.9995 133.8321 0003336 278.5360  81.5421 14.98328385 58836,6950.198,96.107,574.381,569.744,0.0
55310.0,STARLINK-5309,PAYLOAD,2024-02-03 13:50:25,14.98327985,0.000332,69.9995,133.6631,280.4321,79.6464,0.00011778,1.313e-05,0.0,0 STARLINK-5309,1 55310U 23010AT  24034.57668287  .00001313  00000-0  11778-3 0  9997,2 55310  69.9995 133.6631 0003320 280.4321  79.6464 14.98327985 59167,6950.199,96.107,574.372,569.757,0.0
55310.0,STARLINK-5309,PAYLOAD,2024-02-03 17:02:41,14.98330654,0.0003224,69.9996,133.3273,276.6698,83.4094,0.00012942,1.452e-05,0.0,0 STARLINK-5309,1 55310U 23010AT  24034.71020071  .00001452  00000-0  12942-3 0  9994,2 55310  69.9996 133.3273 0003224 276.6698  83.4094 14.98330654 59185,6950.191,96.107,574.297,569.815,0.0
55310.0,STARLINK-5309,PAYLOAD,2024-02-04 12:16:17,14.98320335,0.0002957,69.9996,131.3077,276.6682,83.414,0.00067234,7.936e-05,0.0,0 STARLINK-5309,1 55310U 23010AT  24035.51131310  .00007936  00000-0  67234-3 0  9999,2 55310  69.9996 131.3077 0002957 276.6682  83.4140 14.98320335 58984,6950.223,96.108,574.143,570.033,0.0
55310.0,STARLINK-5309,PAYLOAD,2024-02-04 13:52:25,14.9832748,0.0003024,69.9996,131.1389,278.6231,81.4586,0.00067038,7.914e-05,0.0,0 STARLINK-5309,1 55310U 23010AT  24035.57806853  .00007914  00000-0  67038-3 0  9994,2 55310  69.9996 131.1389 0003024 278.6231  81.4586 14.98327480 59314,6950.201,96.107,574.167,569.964,0.0
55310.0,STARLINK-5309,PAYLOAD,2024-02-04 15:28:32,14.98340525,0.0003207,69.9996,130.9706,280.0195,80.0602,0.00050028,5.883e-05,0.0,0 STARLINK-5309,1 55310U 23010AT  24035.64482416  .00005883  00000-0  50028-3 0  9991,2 55310  69.9996 130.9706 0003207 280.0195  80.0602 14.98340525 59008,6950.16,96.106,574.254,569.796,0.0
55310.0,STARLINK-5309,PAYLOAD,2024-02-05 12:18:18,14.98333781,0.0003122,69.9996,128.7826,271.4498,88.6303,-4.247e-05,-6e-06,0.0,0 STARLINK-5309,1 55310U 23010AT  24036.51271618 -.00000600  00000-0 -42470-4 0  9995,2 55310  69.9996 128.7826 0003122 271.4498  88.6303 14.98333781 59134,6950.181,96.107,574.216,569.876,0.0
55310.0,STARLINK-5309,PAYLOAD,2024-02-05 13:54:26,14.98333947,0.0003021,69.9998,128.6144,269.7553,90.3259,-4.2347e-05,-5.98e-06,0.0,0 STARLINK-5309,1 55310U 23010AT  24036.57947570 -.00000598  00000-0 -42347-4 0  9997,2 55310  69.9998 128.6144 0003021 269.7553  90.3259 14.98333947 59468,6950.181,96.107,574.145,569.946,0.0
55310.0,STARLINK-5309,PAYLOAD,2024-02-05 15:30:34,14.98335666,0.0003065,69.9998,128.4461,271.9147,88.1661,-2.0099e-05,-3.33e-06,0.0,0 STARLINK-5309,1 55310U 23010AT  24036.64623379 -.00000333  00000-0 -20099-4 0  9990,2 55310  69.9998 128.4461 0003065 271.9147  88.1661 14.98335666 59473,6950.175,96.107,574.171,569.91,0.0
55310.0,STARLINK-5309,PAYLOAD,2024-02-06 13:56:27,14.98342162,0.0002764,70.0005,126.0898,267.2083,92.876,-0.00015253,-1.913e-05,0.0,0 STARLINK-5309,1 55310U 23010AT  24037.58086845 -.00001913  00000-0 -15253-3 0  9995,2 55310  70.0005 126.0898 0002764 267.2083  92.8760 14.98342162 59612,6950.155,96.106,573.941,570.099,0.0
55310.0,STARLINK-5309,PAYLOAD,2024-02-06 15:32:34,14.98343295,0.0002748,70.0006,125.9218,267.249,92.8354,-0.00013229,-1.672e-05,0.0,0 STARLINK-5309,1 55310U 23010AT  24037.64762668 -.00001672  00000-0 -13229-3 0  9999,2 55310  70.0006 125.9218 0002748 267.2490  92.8354 14.98343295 59304,6950.152,96.106,573.927,570.107,0.0
55310.0,STARLINK-5309,PAYLOAD,2024-02-07 12:22:19,14.98325322,0.0002809,70.0006,123.7348,266.416,93.6677,0.00013965,1.573e-05,0.0,0 STARLINK-5309,1 55310U 23010AT  24038.51550773  .00001573  00000-0  13965-3 0  9993,2 55310  70.0006 123.7348 0002809 266.4160  93.6677 14.98325322 59439,6950.207,96.107,574.025,570.12,0.0
55310.0,STARLINK-5309,PAYLOAD,2024-02-07 13:58:27,14.98324825,0.0002873,70.0005,123.567,267.5163,92.5667,0.00013827,1.557e-05,0.0,0 STARLINK-5309,1 55310U 23010AT  24038.58226824  .00001557  00000-0  13827-3 0  9996,2 55310  70.0005 123.5670 0002873 267.5163  92.5667 14.98324825 59760,6950.209,96.107,574.071,570.077,0.0
55310.0,STARLINK-5309,PAYLOAD,2024-02-07 15:34:35,14.98331042,0.0002923,70.0005,123.3987,267.954,92.1284,5.2536e-05,5.34e-06,0.0,0 STARLINK-5309,1 55310U 23010AT  24038.64902648  .00000534  00000-0  52536-4 0  9993,2 55310  70.0005 123.3987 0002923 267.9540  92.1284 14.98331042 59779,6950.19,96.107,574.086,570.023,0.0
55310.0,STARLINK-5309,PAYLOAD,2024-02-08 14:00:28,14.98337639,0.0002728,70.0005,121.0415,266.9823,93.1024,-5.9362e-05,-8.01e-06,0.0,0 STARLINK-5309,1 55310U 23010AT  24039.58366492 -.00000801  00000-0 -59362-4 0  9991,2 55310  70.0005 121.0415 0002728 266.9823  93.1024 14.98337639 59913,6950.169,96.107,573.93,570.138,0.0
55310.0,STARLINK-5309,PAYLOAD,2024-02-08 15:36:36,14.9833128,0.0002895,70.0005,120.8733,268.0885,91.9943,7.1937e-05,7.65e-06,0.0,0 STARLINK-5309,1 55310U 23010AT  24039.65042551  .00000765  00000-0  71937-4 0  9995,2 55310  70.0005 120.8733 0002895 268.0885  91.9943 14.98331280 59607,6950.189,96.107,574.066,570.042,0.0
55310.0,STARLINK-5309,PAYLOAD,2024-02-09 14:02:29,14.98327948,0.0002603,70.0007,118.5163,262.6801,97.4063,6.4021e-06,-1.7e-07,0.0,0 STARLINK-5309,1 55310U 23010AT  24040.58506829 -.00000017  00000-0  64021-5 0  9990,2 55310  70.0007 118.5163 0002603 262.6801  97.4063 14.98327948 60067,6950.199,96.107,573.873,570.255,0.0
55310.0,STARLINK-5309,PAYLOAD,2024-02-09 15:38:37,14.98336731,0.0002563,70.0006,118.3477,260.4842,99.6028,-0.000104,-1.334e-05,0.0,0 STARLINK-5309,1 55310U 23010AT  24040.65182522 -.00001334  00000-0 -10400-3 0  9992,2 55310  70.0006 118.3477 0002563 260.4842  99.6028 14.98336731 59757,6950.172,96.107,573.818,570.256,0.0
55310.0,STARLINK-5309,PAYLOAD,2024-02-10 10:52:14,14.98326782,0.0002565,70.0005,116.3277,258.7495,101.3376,-1.0365e-05,-2.17e-06,0.0,0 STARLINK-5309,1 55310U 23010AT  24041.45294950 -.00000217  00000-0 -10365-4 0  9990,2 55310  70.0005 116.3277 0002565 258.7495 101.3376 14.98326782 59873,6950.203,96.107,573.851,570.285,0.0
55310.0,STARLINK-5309,PAYLOAD,2024-02-10 14:04:30,14.98327971,0.0002592,70.0006,115.9912,263.0882,96.9982,-4.1047e-07,-9.8e-07,0.0,0 STARLINK-5309,1 55310U 23010AT  24041.58646888 -.00000098  00000-0 -41047-6 0  9995,2 55310  70.0006 115.9912 0002592 263.0882  96.9982 14.98327971 60217,6950.199,96.107,573.866,570.263,0.0
55310.0,STARLINK-5309,PAYLOAD,2024-02-11 10:54:15,14.98329305,0.0002756,70.0001,113.8027,263.4837,96.6008,4.2058e-05,4.09e-06,0.0,0 STARLINK-5309,1 55310U 23010AT  24042.45434620  .00000409  00000-0  42058-4 0  9996,2 55310  70.0001 113.8027 0002756 263.4837  96.6008 14.98329305 60020,6950.195,96.107,573.976,570.145,0.0
55310.0,STARLINK-5309,PAYLOAD,2024-02-11 14:06:31,14.98331337,0.0002575,70.0005,113.4662,255.8582,104.2291,7.7674e-05,8.34e-06,0.0,0 STARLINK-5309,1 55310U 23010AT  24042.58786362  .00000834  00000-0  77674-4 0  9997,2 55310  70.0005 113.4662 0002575 255.8582 104.2291 14.98331337 60361,6950.189,96.107,573.843,570.264,0.0
55310.0,STARLINK-5309,PAYLOAD,2024-02-12 10:56:15,14.98334036,0.0002713,70.0003,111.2785,263.9981,96.0869,6.4511e-05,6.77e-06,0.0,0 STARLINK-5309,1 55310U 23010AT  24043.45574017  .00000677  00000-0  64511-4 0  9997,2 55310  70.0003 111.2785 0002713 263.9981  96.0869 14.98334036 60175,6950.18,96.107,573.931,570.16,0.0
55310.0,STARLINK-5309,PAYLOAD,2024-02-12 14:08:31,14.98335898,0.000268,70.0005,110.9421,263.5939,96.4915,8.4104e-05,9.11e-06,0.0,0 STARLINK-5309,1 55310U 23010AT  24043.58925792  .00000911  00000-0  84104-4 0  9992,2 55310  70.0005 110.9421 0002680 263.5939  96.4915 14.98335898 60513,6950.175,96.107,573.902,570.177,0.0
55310.0,STARLINK-5309,PAYLOAD,2024-02-13 02:57:37,14.9832695,0.0002261,70.002,109.5979,244.4536,115.639,-2.8833e-05,-4.37e-06,0.0,0 STARLINK-5309,1 55310U 23010AT  24044.12334578 -.00000437  00000-0 -28833-4 0  9991,2 55310  70.0020 109.5979 0002261 244.4536 115.6390 14.98326950 60271,6950.202,96.107,573.639,570.496,0.0
55310.0,STARLINK-5309,PAYLOAD,2024-02-13 14:10:34,14.98321971,0.0002601,70.0009,108.4177,262.7811,97.3053,-7.9499e-05,-1.041e-05,0.0,0 STARLINK-5309,1 55310U 23010AT  24044.59067272 -.00001041  00000-0 -79499-4 0  9992,2 55310  70.0009 108.4177 0002601 262.7811  97.3053 14.98321971 60666,6950.218,96.108,573.89,570.275,0.0
